{"type": "FeatureCollection", "features": [ {"type": "Feature", "properties": {"norad_id": 42741, "name": "EUTELSAT 172B", "group": "eutelsat", "lat": 0.0032021940651548973, "lon": 59.55360207124705, "alt_km": 35786.90873578486, "timestamp": "2025-12-06T11:28:10.700750+00:00", "meta": {"OBJECT_NAME": "EUTELSAT 172B", "OBJECT_ID": "2017-029B", "EPOCH": "2025-12-05T21:21:42.715872", "MEAN_MOTION": 1.00271098, "ECCENTRICITY": 1.563e-05, "INCLINATION": 0.0102, "RA_OF_ASC_NODE": 82.7669, "ARG_OF_PERICENTER": 152.681, "MEAN_ANOMALY": 331.9231, "EPHEMERIS_TYPE": 0, "CLASSIFICATION_TYPE": "U", "NORAD_CAT_ID": 42741, "ELEMENT_SET_NO": 999, "REV_AT_EPOCH": 3179, "BSTAR": 0, "MEAN_MOTION_DOT": 4e-08, "MEAN_MOTION_DDOT": 0}, "tle": {"line1": "1 42741U 17029B   25339.89007773  .00000004  00000+0  00000+0 0  9992", "line2": "2 42741   0.0102  82.7669 0000156 152.6810 331.9231  1.00271098 31796"}}, "geometry": {"type": "Point", "coordinates": [59.55360207124705, 0.0032021940651548973]}}, {"type": "Feature", "properties": {"norad_id": 44334, "name": "EUTELSAT 7C", "group": "eutelsat", "lat": 0.041341361393169955, "lon": -105.46159388045395, "alt_km": 35772.360731059656, "timestamp": "2025-12-06T11:28:10.700763+00:00", "meta": {"OBJECT_NAME": "EUTELSAT 7C", "OBJECT_ID": "2019-034B", "EPOCH": "2025-12-05T22:17:22.382592", "MEAN_MOTION": 1.00269873, "ECCENTRICITY": 0.00034707, "INCLINATION": 0.0752, "RA_OF_ASC_NODE": 179.1841, "ARG_OF_PERICENTER": 60.4272, "MEAN_ANOMALY": 176.6899, "EPHEMERIS_TYPE": 0, "CLASSIFICATION_TYPE": "U", "NORAD_CAT_ID": 44334, "ELEMENT_SET_NO": 999, "REV_AT_EPOCH": 489, "BSTAR": 0, "MEAN_MOTION_DOT": 5.7e-07, "MEAN_MOTION_DDOT": 0}, "tle": {"line1": "1 44334U 19034B   25339.92873128  .00000057  00000+0  00000+0 0  9997", "line2": "2 44334   0.0752 179.1841 0003470  60.4272 176.6899  1.00269873  4893"}}, "geometry": {"type": "Point", "coordinates": [-105.46159388045395, 0.041341361393169955]}}, {"type": "Feature", "properties": {"norad_id": 44624, "name": "EUTELSAT 5 WEST B", "group": "eutelsat", "lat": -0.09296780985040594, "lon": -117.45703612161044, "alt_km": 35771.625464867015, "timestamp": "2025-12-06T11:28:10.700774+00:00", "meta": {"OBJECT_NAME": "EUTELSAT 5 WEST B", "OBJECT_ID": "2019-067A", "EPOCH": "2025-12-05T22:14:00.204864", "MEAN_MOTION": 1.00270341, "ECCENTRICITY": 0.00035993, "INCLINATION": 0.0675, "RA_OF_ASC_NODE": 333.8553, "ARG_OF_PERICENTER": 281.7086, "MEAN_ANOMALY": 147.9161, "EPHEMERIS_TYPE": 0, "CLASSIFICATION_TYPE": "U", "NORAD_CAT_ID": 44624, "ELEMENT_SET_NO": 999, "REV_AT_EPOCH": 2249, "BSTAR": 0, "MEAN_MOTION_DOT": -3.3e-07, "MEAN_MOTION_DDOT": 0}, "tle": {"line1": "1 44624U 19067A   25339.92639126 -.00000033  00000+0  00000+0 0  9998", "line2": "2 44624   0.0675 333.8553 0003599 281.7086 147.9161  1.00270341 22492"}}, "geometry": {"type": "Point", "coordinates": [-117.45703612161044, -0.09296780985040594]}}, {"type": "Feature", "properties": {"norad_id": 45027, "name": "EUTELSAT KONNECT", "group": "eutelsat", "lat": -0.0030325693241917352, "lon": -105.28291850105565, "alt_km": 35780.38744227938, "timestamp": "2025-12-06T11:28:10.700786+00:00", "meta": {"OBJECT_NAME": "EUTELSAT KONNECT", "OBJECT_ID": "2020-005B", "EPOCH": "2025-12-05T22:17:29.870880", "MEAN_MOTION": 1.00267987, "ECCENTRICITY": 0.00018557, "INCLINATION": 0.0712, "RA_OF_ASC_NODE": 98.3329, "ARG_OF_PERICENTER": 187.648, "MEAN_ANOMALY": 130.555, "EPHEMERIS_TYPE": 0, "CLASSIFICATION_TYPE": "U", "NORAD_CAT_ID": 45027, "ELEMENT_SET_NO": 999, "REV_AT_EPOCH": 2238, "BSTAR": 0, "MEAN_MOTION_DOT": 5.8e-07, "MEAN_MOTION_DDOT": 0}, "tle": {"line1": "1 45027U 20005B   25339.92881795  .00000058  00000+0  00000+0 0  9997", "line2": "2 45027   0.0712  98.3329 0001855 187.6480 130.5550  1.00267987 22381"}}, "geometry": {"type": "Point", "coordinates": [-105.28291850105565, -0.0030325693241917352]}}, {"type": "Feature", "properties": {"norad_id": 49056, "name": "EUTELSAT QUANTUM", "group": "eutelsat", "lat": -0.03626089768701995, "lon": -64.72960082506489, "alt_km": 35772.598937361865, "timestamp": "2025-12-06T11:28:10.700798+00:00", "meta": {"OBJECT_NAME": "EUTELSAT QUANTUM", "OBJECT_ID": "2021-069B", "EPOCH": "2025-12-05T21:42:38.692800", "MEAN_MOTION": 1.00270217, "ECCENTRICITY": 0.00037114, "INCLINATION": 0.0249, "RA_OF_ASC_NODE": 38.192, "ARG_OF_PERICENTER": 229.0136, "MEAN_ANOMALY": 181.1111, "EPHEMERIS_TYPE": 0, "CLASSIFICATION_TYPE": "U", "NORAD_CAT_ID": 49056, "ELEMENT_SET_NO": 999, "REV_AT_EPOCH": 1599, "BSTAR": 0, "MEAN_MOTION_DOT": 1.35e-06, "MEAN_MOTION_DDOT": 0}, "tle": {"line1": "1 49056U 21069B   25339.90461450  .00000135  00000+0  00000+0 0  9990", "line2": "2 49056   0.0249  38.1920 0003711 229.0136 181.1111  1.00270217 15997"}}, "geometry": {"type": "Point", "coordinates": [-64.72960082506489, -0.03626089768701995]}}, {"type": "Feature", "properties": {"norad_id": 53765, "name": "EUTELSAT KONNECT VHTS", "group": "eutelsat", "lat": 0.0017730819689290248, "lon": -109.71569501785312, "alt_km": 35772.46527648184, "timestamp": "2025-12-06T11:28:10.700809+00:00", "meta": {"OBJECT_NAME": "EUTELSAT KONNECT VHTS", "OBJECT_ID": "2022-110A", "EPOCH": "2025-12-05T22:16:07.502304", "MEAN_MOTION": 1.00277997, "ECCENTRICITY": 0.00030294, "INCLINATION": 0.0606, "RA_OF_ASC_NODE": 109.2727, "ARG_OF_PERICENTER": 118.3682, "MEAN_ANOMALY": 184.0741, "EPHEMERIS_TYPE": 0, "CLASSIFICATION_TYPE": "U", "NORAD_CAT_ID": 53765, "ELEMENT_SET_NO": 999, "REV_AT_EPOCH": 488, "BSTAR": 0, "MEAN_MOTION_DOT": 2.8e-07, "MEAN_MOTION_DDOT": 0}, "tle": {"line1": "1 53765U 22110A   25339.92786461  .00000028  00000+0  00000+0 0  9995", "line2": "2 53765   0.0606 109.2727 0003029 118.3682 184.0741  1.00277997  4888"}}, "geometry": {"type": "Point", "coordinates": [-109.71569501785312, 0.0017730819689290248]}}, {"type": "Feature", "properties": {"norad_id": 54048, "name": "EUTELSAT HOTBIRD 13F", "group": "eutelsat", "lat": -0.04597508062629021, "lon": -99.47552500952055, "alt_km": 35786.45116788586, "timestamp": "2025-12-06T11:28:10.700821+00:00", "meta": {"OBJECT_NAME": "EUTELSAT HOTBIRD 13F", "OBJECT_ID": "2022-134A", "EPOCH": "2025-12-05T22:19:07.215168", "MEAN_MOTION": 1.00271294, "ECCENTRICITY": 0.00022422, "INCLINATION": 0.0469, "RA_OF_ASC_NODE": 293.9062, "ARG_OF_PERICENTER": 58.223, "MEAN_ANOMALY": 70.6291, "EPHEMERIS_TYPE": 0, "CLASSIFICATION_TYPE": "U", "NORAD_CAT_ID": 54048, "ELEMENT_SET_NO": 999, "REV_AT_EPOCH": 1143, "BSTAR": 0, "MEAN_MOTION_DOT": 9.6e-07, "MEAN_MOTION_DDOT": 0}, "tle": {"line1": "1 54048U 22134A   25339.92994462  .00000096  00000+0  00000+0 0  9993", "line2": "2 54048   0.0469 293.9062 0002242  58.2230  70.6291  1.00271294 11433"}}, "geometry": {"type": "Point", "coordinates": [-99.47552500952055, -0.04597508062629021]}}, {"type": "Feature", "properties": {"norad_id": 54225, "name": "EUTELSAT HOTBIRD 13G", "group": "eutelsat", "lat": -0.006937324553379361, "lon": -99.4394981923974, "alt_km": 35783.93290072802, "timestamp": "2025-12-06T11:28:10.700832+00:00", "meta": {"OBJECT_NAME": "EUTELSAT HOTBIRD 13G", "OBJECT_ID": "2022-146A", "EPOCH": "2025-12-05T15:28:18.292224", "MEAN_MOTION": 1.00270321, "ECCENTRICITY": 0.00019255, "INCLINATION": 0.0461, "RA_OF_ASC_NODE": 235.0424, "ARG_OF_PERICENTER": 313.1322, "MEAN_ANOMALY": 131.5912, "EPHEMERIS_TYPE": 0, "CLASSIFICATION_TYPE": "U", "NORAD_CAT_ID": 54225, "ELEMENT_SET_NO": 999, "REV_AT_EPOCH": 552, "BSTAR": 0, "MEAN_MOTION_DOT": 9.7e-07, "MEAN_MOTION_DDOT": 0}, "tle": {"line1": "1 54225U 22146A   25339.64465616  .00000097  00000+0  00000+0 0  9997", "line2": "2 54225   0.0461 235.0424 0001925 313.1322 131.5912  1.00270321  5523"}}, "geometry": {"type": "Point", "coordinates": [-99.4394981923974, -0.006937324553379361]}}, {"type": "Feature", "properties": {"norad_id": 54259, "name": "EUTELSAT 10B", "group": "eutelsat", "lat": -0.00622451561958073, "lon": -102.44501089171166, "alt_km": 35785.78329617089, "timestamp": "2025-12-06T11:28:10.700844+00:00", "meta": {"OBJECT_NAME": "EUTELSAT 10B", "OBJECT_ID": "2022-157A", "EPOCH": "2025-12-05T22:18:14.798880", "MEAN_MOTION": 1.00268186, "ECCENTRICITY": 0.0001157, "INCLINATION": 0.0609, "RA_OF_ASC_NODE": 104.8403, "ARG_OF_PERICENTER": 77.592, "MEAN_ANOMALY": 237.1051, "EPHEMERIS_TYPE": 0, "CLASSIFICATION_TYPE": "U", "NORAD_CAT_ID": 54259, "ELEMENT_SET_NO": 999, "REV_AT_EPOCH": 1108, "BSTAR": 0, "MEAN_MOTION_DOT": 7.7e-07, "MEAN_MOTION_DDOT": 0}, "tle": {"line1": "1 54259U 22157A   25339.92933795  .00000077  00000+0  00000+0 0  9993", "line2": "2 54259   0.0609 104.8403 0001157  77.5920 237.1051  1.00268186 11087"}}, "geometry": {"type": "Point", "coordinates": [-102.44501089171166, -0.00622451561958073]}}, {"type": "Feature", "properties": {"norad_id": 59346, "name": "EUTELSAT 36D", "group": "eutelsat", "lat": -0.04035464075737897, "lon": -76.59031262345876, "alt_km": 35783.286892081145, "timestamp": "2025-12-06T11:28:10.700855+00:00", "meta": {"OBJECT_NAME": "EUTELSAT 36D", "OBJECT_ID": "2024-059A", "EPOCH": "2025-12-05T21:12:21.661920", "MEAN_MOTION": 1.00272563, "ECCENTRICITY": 7.535e-05, "INCLINATION": 0.0214, "RA_OF_ASC_NODE": 349.7189, "ARG_OF_PERICENTER": 331.5769, "MEAN_ANOMALY": 107.5891, "EPHEMERIS_TYPE": 0, "CLASSIFICATION_TYPE": "U", "NORAD_CAT_ID": 59346, "ELEMENT_SET_NO": 999, "REV_AT_EPOCH": 620, "BSTAR": 0, "MEAN_MOTION_DOT": 0, "MEAN_MOTION_DDOT": 0}, "tle": {"line1": "1 59346U 24059A   25339.88358405  .00000000  00000+0  00000+0 0  9998", "line2": "2 59346   0.0214 349.7189 0000753 331.5769 107.5891  1.00272563  6201"}}, "geometry": {"type": "Point", "coordinates": [-76.59031262345876, -0.04035464075737897]}}]}